{
 "generated_at": "2026-07-05T07:57:19Z",
 "sources": [
  {
   "name": "CelesTrak",
   "url": "https://celestrak.org/NORAD/elements/",
   "license": "frei verfügbar; Attribution. Ursprünglich USSPACECOM/Space-Track."
  },
  {
   "name": "GCAT (J. McDowell, planet4589.org)",
   "url": "https://planet4589.org/space/gcat/",
   "license": "CC-BY 4.0"
  }
 ],
 "satellites": [
  {
   "norad": 41026,
   "name": "YAOGAN-28",
   "intl": "2015-064A",
   "group": "resource",
   "gcat": {
    "class": "D",
    "category": "IMG",
    "owner": "ZZB",
    "state": "CN"
   },
   "omm": {
    "OBJECT_NAME": "YAOGAN-28",
    "OBJECT_ID": "2015-064A",
    "EPOCH": "2026-07-04T14:48:07.723584",
    "MEAN_MOTION": 15.27656062,
    "ECCENTRICITY": 0.00118652,
    "INCLINATION": 97.3101,
    "RA_OF_ASC_NODE": 323.5273,
    "ARG_OF_PERICENTER": 125.7359,
    "MEAN_ANOMALY": 234.4986,
    "EPHEMERIS_TYPE": 0,
    "CLASSIFICATION_TYPE": "U",
    "NORAD_CAT_ID": 41026,
    "ELEMENT_SET_NO": 999,
    "REV_AT_EPOCH": 59334,
    "BSTAR": 0.0004105143,
    "MEAN_MOTION_DOT": 0.00011052,
    "MEAN_MOTION_DDOT": 0
   }
  },
  {
   "norad": 41038,
   "name": "YAOGAN-29",
   "intl": "2015-069A",
   "group": "resource",
   "gcat": {
    "class": "D",
    "category": "IMG-R",
    "owner": "ZZB",
    "state": "CN"
   },
   "omm": {
    "OBJECT_NAME": "YAOGAN-29",
    "OBJECT_ID": "2015-069A",
    "EPOCH": "2026-07-04T15:38:49.691328",
    "MEAN_MOTION": 14.8310195,
    "ECCENTRICITY": 0.00016078,
    "INCLINATION": 98.0016,
    "RA_OF_ASC_NODE": 214.312,
    "ARG_OF_PERICENTER": 28.9884,
    "MEAN_ANOMALY": 331.1418,
    "EPHEMERIS_TYPE": 0,
    "CLASSIFICATION_TYPE": "U",
    "NORAD_CAT_ID": 41038,
    "ELEMENT_SET_NO": 999,
    "REV_AT_EPOCH": 57321,
    "BSTAR": 0.00012394211,
    "MEAN_MOTION_DOT": 0.00000955,
    "MEAN_MOTION_DDOT": 0
   }
  },
  {
   "norad": 32289,
   "name": "YAOGAN-3",
   "intl": "2007-055A",
   "group": "resource",
   "gcat": {
    "class": null,
    "category": null,
    "owner": null,
    "state": null
   },
   "omm": {
    "OBJECT_NAME": "YAOGAN-3",
    "OBJECT_ID": "2007-055A",
    "EPOCH": "2026-07-04T15:29:20.544288",
    "MEAN_MOTION": 14.90853072,
    "ECCENTRICITY": 0.00018127,
    "INCLINATION": 97.8144,
    "RA_OF_ASC_NODE": 215.351,
    "ARG_OF_PERICENTER": 80.6541,
    "MEAN_ANOMALY": 279.4882,
    "EPHEMERIS_TYPE": 0,
    "CLASSIFICATION_TYPE": "U",
    "NORAD_CAT_ID": 32289,
    "ELEMENT_SET_NO": 999,
    "REV_AT_EPOCH": 847,
    "BSTAR": 0.00035524852,
    "MEAN_MOTION_DOT": 0.00003444,
    "MEAN_MOTION_DDOT": 0
   }
  },
  {
   "norad": 33446,
   "name": "YAOGAN-4",
   "intl": "2008-061A",
   "group": "resource",
   "gcat": {
    "class": null,
    "category": null,
    "owner": null,
    "state": null
   },
   "omm": {
    "OBJECT_NAME": "YAOGAN-4",
    "OBJECT_ID": "2008-061A",
    "EPOCH": "2026-07-04T13:44:09.111552",
    "MEAN_MOTION": 14.83237838,
    "ECCENTRICITY": 0.00147713,
    "INCLINATION": 97.9307,
    "RA_OF_ASC_NODE": 118.9546,
    "ARG_OF_PERICENTER": 19.965,
    "MEAN_ANOMALY": 340.2138,
    "EPHEMERIS_TYPE": 0,
    "CLASSIFICATION_TYPE": "U",
    "NORAD_CAT_ID": 33446,
    "ELEMENT_SET_NO": 999,
    "REV_AT_EPOCH": 94824,
    "BSTAR": 0.0001907501,
    "MEAN_MOTION_DOT": 0.00001508,
    "MEAN_MOTION_DDOT": 0
   }
  },
  {
   "norad": 36110,
   "name": "YAOGAN-7",
   "intl": "2009-069A",
   "group": "resource",
   "gcat": {
    "class": null,
    "category": null,
    "owner": null,
    "state": null
   },
   "omm": {
    "OBJECT_NAME": "YAOGAN-7",
    "OBJECT_ID": "2009-069A",
    "EPOCH": "2026-07-04T10:04:25.391712",
    "MEAN_MOTION": 14.78027757,
    "ECCENTRICITY": 0.00242897,
    "INCLINATION": 98.0049,
    "RA_OF_ASC_NODE": 71.1787,
    "ARG_OF_PERICENTER": 347.1078,
    "MEAN_ANOMALY": 12.9509,
    "EPHEMERIS_TYPE": 0,
    "CLASSIFICATION_TYPE": "U",
    "NORAD_CAT_ID": 36110,
    "ELEMENT_SET_NO": 999,
    "REV_AT_EPOCH": 89217,
    "BSTAR": 0.000089957282,
    "MEAN_MOTION_DOT": 0.00000599,
    "MEAN_MOTION_DDOT": 0
   }
  },
  {
   "norad": 38038,
   "name": "ZIYUAN 1-02C (ZY 1-02C)",
   "intl": "2011-079A",
   "group": "resource",
   "gcat": {
    "class": null,
    "category": null,
    "owner": null,
    "state": null
   },
   "omm": {
    "OBJECT_NAME": "ZIYUAN 1-02C (ZY 1-02C)",
    "OBJECT_ID": "2011-079A",
    "EPOCH": "2026-07-04T15:01:36.115680",
    "MEAN_MOTION": 14.38229611,
    "ECCENTRICITY": 0.00051544,
    "INCLINATION": 98.4063,
    "RA_OF_ASC_NODE": 252.5702,
    "ARG_OF_PERICENTER": 252.7468,
    "MEAN_ANOMALY": 266.23,
    "EPHEMERIS_TYPE": 0,
    "CLASSIFICATION_TYPE": "U",
    "NORAD_CAT_ID": 38038,
    "ELEMENT_SET_NO": 999,
    "REV_AT_EPOCH": 76171,
    "BSTAR": 0.00021623095,
    "MEAN_MOTION_DOT": 0.00000614,
    "MEAN_MOTION_DDOT": 0
   }
  },
  {
   "norad": 41556,
   "name": "ZIYUAN 3-02 (ZY 3-02)",
   "intl": "2016-033A",
   "group": "resource",
   "gcat": {
    "class": "C",
    "category": "IMG",
    "owner": "GCDX/ZZWYZ",
    "state": "CN"
   },
   "omm": {
    "OBJECT_NAME": "ZIYUAN 3-02 (ZY 3-02)",
    "OBJECT_ID": "2016-033A",
    "EPOCH": "2026-07-04T14:53:27.979008",
    "MEAN_MOTION": 15.21356513,
    "ECCENTRICITY": 0.00130294,
    "INCLINATION": 97.3827,
    "RA_OF_ASC_NODE": 261.0596,
    "ARG_OF_PERICENTER": 223.2718,
    "MEAN_ANOMALY": 136.7495,
    "EPHEMERIS_TYPE": 0,
    "CLASSIFICATION_TYPE": "U",
    "NORAD_CAT_ID": 41556,
    "ELEMENT_SET_NO": 999,
    "REV_AT_EPOCH": 56063,
    "BSTAR": 0.00044291586,
    "MEAN_MOTION_DOT": 0.00009882,
    "MEAN_MOTION_DDOT": 0
   }
  }
 ]
}
